[
  {
    "OBJECT_NAME": "STARLINK-5495",
    "OBJECT_ID": "23021H",
    "EPOCH": "2025-11-11T04:58:46.846560",
    "MEAN_MOTION": 14.98330996,
    "ECCENTRICITY": 0.0002637,
    "INCLINATION": 69.9992,
    "RA_OF_ASC_NODE": 123.2075,
    "ARG_OF_PERICENTER": 272.9285,
    "MEAN_ANOMALY": 87.1573,
    "EPHEMERIS_TYPE": 0,
    "CLASSIFICATION_TYPE": "U",
    "NORAD_CAT_ID": 55635,
    "ELEMENT_SET_NO": 999,
    "REV_AT_EPOCH": 15104,
    "BSTAR": 6.1615e-05,
    "MEAN_MOTION_DOT": 6.42e-06,
    "MEAN_MOTION_DDOT": 0.0,
    "TLE_LINE1": "1 55635U 23021H   25315.20748665  .00000642  00000+0  61615-4 0  9990",
    "TLE_LINE2": "2 55635  69.9992 123.2075 0002637 272.9285  87.1573 14.98330996151047",
    "COMMENT": "Grouped by shell and plane from TLE"
  },
  {
    "OBJECT_NAME": "STARLINK-5062",
    "OBJECT_ID": "23021K",
    "EPOCH": "2025-11-10T21:22:08.282496",
    "MEAN_MOTION": 14.98334708,
    "ECCENTRICITY": 0.0003,
    "INCLINATION": 69.9981,
    "RA_OF_ASC_NODE": 124.1038,
    "ARG_OF_PERICENTER": 270.8048,
    "MEAN_ANOMALY": 89.2767,
    "EPHEMERIS_TYPE": 0,
    "CLASSIFICATION_TYPE": "U",
    "NORAD_CAT_ID": 55637,
    "ELEMENT_SET_NO": 999,
    "REV_AT_EPOCH": 15099,
    "BSTAR": 4.5115000000000004e-05,
    "MEAN_MOTION_DOT": 4.45e-06,
    "MEAN_MOTION_DDOT": 0.0,
    "TLE_LINE1": "1 55637U 23021K   25314.89037364  .00000445  00000+0  45115-4 0  9991",
    "TLE_LINE2": "2 55637  69.9981 124.1038 0003000 270.8048  89.2767 14.98334708150991",
    "COMMENT": "Grouped by shell and plane from TLE"
  },
  {
    "OBJECT_NAME": "STARLINK-5508",
    "OBJECT_ID": "23021M",
    "EPOCH": "2025-11-11T04:52:59.833056",
    "MEAN_MOTION": 14.98331456,
    "ECCENTRICITY": 0.0002307,
    "INCLINATION": 69.9993,
    "RA_OF_ASC_NODE": 123.1906,
    "ARG_OF_PERICENTER": 272.2643,
    "MEAN_ANOMALY": 87.8252,
    "EPHEMERIS_TYPE": 0,
    "CLASSIFICATION_TYPE": "U",
    "NORAD_CAT_ID": 55639,
    "ELEMENT_SET_NO": 999,
    "REV_AT_EPOCH": 15104,
    "BSTAR": 1.5209000000000001e-05,
    "MEAN_MOTION_DOT": 8.9e-07,
    "MEAN_MOTION_DDOT": 0.0,
    "TLE_LINE1": "1 55639U 23021M   25315.20347029  .00000089  00000+0  15209-4 0  9996",
    "TLE_LINE2": "2 55639  69.9993 123.1906 0002307 272.2643  87.8252 14.98331456151042",
    "COMMENT": "Grouped by shell and plane from TLE"
  },
  {
    "OBJECT_NAME": "STARLINK-5069",
    "OBJECT_ID": "23021N",
    "EPOCH": "2025-11-11T04:46:44.930496",
    "MEAN_MOTION": 14.983297,
    "ECCENTRICITY": 0.0002914,
    "INCLINATION": 69.9966,
    "RA_OF_ASC_NODE": 123.1736,
    "ARG_OF_PERICENTER": 271.3193,
    "MEAN_ANOMALY": 88.7632,
    "EPHEMERIS_TYPE": 0,
    "CLASSIFICATION_TYPE": "U",
    "NORAD_CAT_ID": 55640,
    "ELEMENT_SET_NO": 999,
    "REV_AT_EPOCH": 15104,
    "BSTAR": 0.0,
    "MEAN_MOTION_DOT": -9.8e-07,
    "MEAN_MOTION_DDOT": 0.0,
    "TLE_LINE1": "1 55640U 23021N   25315.19913114 -.00000098  00000+0 -45125-6 0  9994",
    "TLE_LINE2": "2 55640  69.9966 123.1736 0002914 271.3193  88.7632 14.98329700151040",
    "COMMENT": "Grouped by shell and plane from TLE"
  },
  {
    "OBJECT_NAME": "STARLINK-5065",
    "OBJECT_ID": "23021P",
    "EPOCH": "2025-11-10T19:52:00.833952",
    "MEAN_MOTION": 14.98336485,
    "ECCENTRICITY": 0.0002822,
    "INCLINATION": 69.9989,
    "RA_OF_ASC_NODE": 124.284,
    "ARG_OF_PERICENTER": 271.0006,
    "MEAN_ANOMALY": 89.083,
    "EPHEMERIS_TYPE": 0,
    "CLASSIFICATION_TYPE": "U",
    "NORAD_CAT_ID": 55641,
    "ELEMENT_SET_NO": 999,
    "REV_AT_EPOCH": 15098,
    "BSTAR": 5.6429e-05,
    "MEAN_MOTION_DOT": 5.8e-06,
    "MEAN_MOTION_DDOT": 0.0,
    "TLE_LINE1": "1 55641U 23021P   25314.82778743  .00000580  00000+0  56429-4 0  9992",
    "TLE_LINE2": "2 55641  69.9989 124.2840 0002822 271.0006  89.0830 14.98336485150986",
    "COMMENT": "Grouped by shell and plane from TLE"
  },
  {
    "OBJECT_NAME": "STARLINK-5483",
    "OBJECT_ID": "23021R",
    "EPOCH": "2025-11-11T04:04:43.552992",
    "MEAN_MOTION": 14.98317971,
    "ECCENTRICITY": 0.0002631,
    "INCLINATION": 69.9986,
    "RA_OF_ASC_NODE": 123.4681,
    "ARG_OF_PERICENTER": 271.1307,
    "MEAN_ANOMALY": 88.9551,
    "EPHEMERIS_TYPE": 0,
    "CLASSIFICATION_TYPE": "U",
    "NORAD_CAT_ID": 55643,
    "ELEMENT_SET_NO": 999,
    "REV_AT_EPOCH": 15103,
    "BSTAR": 0.00012295,
    "MEAN_MOTION_DOT": 1.374e-05,
    "MEAN_MOTION_DDOT": 0.0,
    "TLE_LINE1": "1 55643U 23021R   25315.16994853  .00001374  00000+0  12295-3 0  9998",
    "TLE_LINE2": "2 55643  69.9986 123.4681 0002631 271.1307  88.9551 14.98317971151036",
    "COMMENT": "Grouped by shell and plane from TLE"
  },
  {
    "OBJECT_NAME": "STARLINK-5502",
    "OBJECT_ID": "23021S",
    "EPOCH": "2025-11-11T05:10:47.270496",
    "MEAN_MOTION": 14.98331238,
    "ECCENTRICITY": 0.0002943,
    "INCLINATION": 69.9987,
    "RA_OF_ASC_NODE": 123.2336,
    "ARG_OF_PERICENTER": 273.5963,
    "MEAN_ANOMALY": 86.4859,
    "EPHEMERIS_TYPE": 0,
    "CLASSIFICATION_TYPE": "U",
    "NORAD_CAT_ID": 55644,
    "ELEMENT_SET_NO": 999,
    "REV_AT_EPOCH": 15104,
    "BSTAR": 3.8749000000000005e-05,
    "MEAN_MOTION_DOT": 3.69e-06,
    "MEAN_MOTION_DDOT": 0.0,
    "TLE_LINE1": "1 55644U 23021S   25315.21582489  .00000369  00000+0  38749-4 0  9999",
    "TLE_LINE2": "2 55644  69.9987 123.2336 0002943 273.5963  86.4859 14.98331238151040",
    "COMMENT": "Grouped by shell and plane from TLE"
  },
  {
    "OBJECT_NAME": "STARLINK-5510",
    "OBJECT_ID": "23021V",
    "EPOCH": "2025-11-11T04:22:45.365664",
    "MEAN_MOTION": 14.9831269,
    "ECCENTRICITY": 0.0001416,
    "INCLINATION": 69.9973,
    "RA_OF_ASC_NODE": 123.1145,
    "ARG_OF_PERICENTER": 34.1363,
    "MEAN_ANOMALY": 325.9887,
    "EPHEMERIS_TYPE": 0,
    "CLASSIFICATION_TYPE": "U",
    "NORAD_CAT_ID": 55647,
    "ELEMENT_SET_NO": 999,
    "REV_AT_EPOCH": 15104,
    "BSTAR": 0.0,
    "MEAN_MOTION_DOT": -1.818e-05,
    "MEAN_MOTION_DDOT": 0.0,
    "TLE_LINE1": "1 55647U 23021V   25315.18246951 -.00001818  00000+0 -14472-3 0  9997",
    "TLE_LINE2": "2 55647  69.9973 123.1145 0001416  34.1363 325.9887 14.98312690151047",
    "COMMENT": "Grouped by shell and plane from TLE"
  },
  {
    "OBJECT_NAME": "STARLINK-5501",
    "OBJECT_ID": "23021W",
    "EPOCH": "2025-11-11T05:04:48.136800",
    "MEAN_MOTION": 14.9832393,
    "ECCENTRICITY": 0.0003006,
    "INCLINATION": 69.9971,
    "RA_OF_ASC_NODE": 123.2198,
    "ARG_OF_PERICENTER": 272.0431,
    "MEAN_ANOMALY": 88.0384,
    "EPHEMERIS_TYPE": 0,
    "CLASSIFICATION_TYPE": "U",
    "NORAD_CAT_ID": 55648,
    "ELEMENT_SET_NO": 999,
    "REV_AT_EPOCH": 15104,
    "BSTAR": 0.0002134,
    "MEAN_MOTION_DOT": 2.454e-05,
    "MEAN_MOTION_DDOT": 0.0,
    "TLE_LINE1": "1 55648U 23021W   25315.21166825  .00002454  00000+0  21340-3 0  9990",
    "TLE_LINE2": "2 55648  69.9971 123.2198 0003006 272.0431  88.0384 14.98323930151049",
    "COMMENT": "Grouped by shell and plane from TLE"
  },
  {
    "OBJECT_NAME": "STARLINK-5469",
    "OBJECT_ID": "23021X",
    "EPOCH": "2025-11-11T04:34:43.528512",
    "MEAN_MOTION": 14.98332173,
    "ECCENTRICITY": 0.0002593,
    "INCLINATION": 69.9982,
    "RA_OF_ASC_NODE": 123.1452,
    "ARG_OF_PERICENTER": 270.6616,
    "MEAN_ANOMALY": 89.4246,
    "EPHEMERIS_TYPE": 0,
    "CLASSIFICATION_TYPE": "U",
    "NORAD_CAT_ID": 55649,
    "ELEMENT_SET_NO": 999,
    "REV_AT_EPOCH": 15104,
    "BSTAR": 3.3739000000000003e-05,
    "MEAN_MOTION_DOT": 3.1e-06,
    "MEAN_MOTION_DDOT": 0.0,
    "TLE_LINE1": "1 55649U 23021X   25315.19078158  .00000310  00000+0  33739-4 0  9994",
    "TLE_LINE2": "2 55649  69.9982 123.1452 0002593 270.6616  89.4246 14.98332173151044",
    "COMMENT": "Grouped by shell and plane from TLE"
  },
  {
    "OBJECT_NAME": "STARLINK-5494",
    "OBJECT_ID": "23021Y",
    "EPOCH": "2025-11-10T20:52:06.119328",
    "MEAN_MOTION": 14.98318421,
    "ECCENTRICITY": 0.0003359,
    "INCLINATION": 69.9978,
    "RA_OF_ASC_NODE": 124.0303,
    "ARG_OF_PERICENTER": 269.5129,
    "MEAN_ANOMALY": 90.5645,
    "EPHEMERIS_TYPE": 0,
    "CLASSIFICATION_TYPE": "U",
    "NORAD_CAT_ID": 55650,
    "ELEMENT_SET_NO": 999,
    "REV_AT_EPOCH": 15099,
    "BSTAR": 0.00021224000000000001,
    "MEAN_MOTION_DOT": 2.44e-05,
    "MEAN_MOTION_DDOT": 0.0,
    "TLE_LINE1": "1 55650U 23021Y   25314.86951527  .00002440  00000+0  21224-3 0  9990",
    "TLE_LINE2": "2 55650  69.9978 124.0303 0003359 269.5129  90.5645 14.98318421150992",
    "COMMENT": "Grouped by shell and plane from TLE"
  },
  {
    "OBJECT_NAME": "STARLINK-5506",
    "OBJECT_ID": "23021Z",
    "EPOCH": "2025-11-11T05:16:48.039744",
    "MEAN_MOTION": 14.98332699,
    "ECCENTRICITY": 0.0002984,
    "INCLINATION": 69.9991,
    "RA_OF_ASC_NODE": 123.2484,
    "ARG_OF_PERICENTER": 271.384,
    "MEAN_ANOMALY": 88.6978,
    "EPHEMERIS_TYPE": 0,
    "CLASSIFICATION_TYPE": "U",
    "NORAD_CAT_ID": 55651,
    "ELEMENT_SET_NO": 999,
    "REV_AT_EPOCH": 15104,
    "BSTAR": 3.9236e-05,
    "MEAN_MOTION_DOT": 3.75e-06,
    "MEAN_MOTION_DDOT": 0.0,
    "TLE_LINE1": "1 55651U 23021Z   25315.22000046  .00000375  00000+0  39236-4 0  9991",
    "TLE_LINE2": "2 55651  69.9991 123.2484 0002984 271.3840  88.6978 14.98332699151040",
    "COMMENT": "Grouped by shell and plane from TLE"
  },
  {
    "OBJECT_NAME": "STARLINK-5487",
    "OBJECT_ID": "23021AA",
    "EPOCH": "2025-11-10T22:16:11.864640",
    "MEAN_MOTION": 14.98332688,
    "ECCENTRICITY": 0.000291,
    "INCLINATION": 69.9977,
    "RA_OF_ASC_NODE": 123.8333,
    "ARG_OF_PERICENTER": 270.6602,
    "MEAN_ANOMALY": 89.4224,
    "EPHEMERIS_TYPE": 0,
    "CLASSIFICATION_TYPE": "U",
    "NORAD_CAT_ID": 55652,
    "ELEMENT_SET_NO": 999,
    "REV_AT_EPOCH": 15100,
    "BSTAR": 4.2445000000000004e-05,
    "MEAN_MOTION_DOT": 4.13e-06,
    "MEAN_MOTION_DDOT": 0.0,
    "TLE_LINE1": "1 55652U 23021AA  25314.92791510  .00000413  00000+0  42445-4 0  9990",
    "TLE_LINE2": "2 55652  69.9977 123.8333 0002910 270.6602  89.4224 14.98332688151008",
    "COMMENT": "Grouped by shell and plane from TLE"
  }
]